SES-4                   
1 38087U 12007A   17077.09215105 -.00000183  00000-0  00000-0 0  9994
2 38087   0.0161  68.1432 0002165 272.9705 205.8869  1.00271805 18401
BEIDOU G5               
1 38091U 12008A   17076.03589888  .00000039  00000-0  00000-0 0  9994
2 38091   2.0646  54.9703 0003474 241.4054 310.1542  1.00277939 18594
INTELSAT 22 (IS-22)     
1 38098U 12011A   17077.31065179 -.00000073  00000-0  00000-0 0  9998
2 38098   0.0090 114.6169 0001925 251.4921 353.8933  1.00269939 17975
APSTAR 7                
1 38107U 12013A   17075.76216844 -.00000119  00000-0  00000-0 0  9996
2 38107   0.0474  96.3728 0002776 251.0898 177.9204  1.00271636 18281
YAHSAT 1B               
1 38245U 12016A   17077.37860268  .00000112  00000-0  00000-0 0  9998
2 38245   0.0127 179.1877 0001984 188.4454 352.3539  1.00272735 11762
JCSAT-13                
1 38331U 12023A   17077.16695302 -.00000371  00000-0  00000-0 0  9992
2 38331   0.0182 177.4677 0002723 211.3288 331.2185  1.00270746 17669
VINASAT-2               
1 38332U 12023B   17077.86089861 -.00000343  00000-0  00000-0 0  9996
2 38332   0.0171 259.3210 0002632 122.1798 236.8509  1.00273107 12798
NIMIQ 6                 
1 38342U 12026A   17076.76553776 -.00000188  00000-0  00000-0 0  9996
2 38342   0.0180 179.4644 0002684 186.5490 353.9898  1.00271135 17721
CHINASAT 2A (ZX 2A)     
1 38352U 12028A   17077.81096649 -.00000306  00000-0  00000-0 0  9999
2 38352   0.0157 179.2609 0005263 173.1948 214.2577  1.00270642 17771
INTELSAT 19 (IS-19)     
1 38356U 12030A   17077.05057102 -.00000071  00000-0  00000-0 0  9992
2 38356   0.0201 286.5271 0002956  79.2315 354.2281  1.00271987 16603
ECHOSTAR 17             
1 38551U 12035A   17076.80981892 -.00000090  00000-0  00000-0 0  9999
2 38551   0.0220 169.6121 0001836 185.3528   5.0332  1.00269971 17202
METEOSAT-10 (MSG-3)     
1 38552U 12035B   17077.51154317 -.00000022  00000-0  00000-0 0  9998
2 38552   0.7389  48.2508 0000053 295.0797  16.6544  1.00271503 17021
SES-5                   
1 38652U 12036A   17077.08173466  .00000019  00000-0  00000-0 0  9993
2 38652   0.0374 258.2118 0002046 100.1678 211.8337  1.00273494 10637
TIANLIAN 1-03           
1 38730U 12040A   17076.48393542  .00000056  00000-0  00000-0 0  9998
2 38730   0.1039 264.4964 0002116 134.2667 321.2341  1.00273291 14848
INTELSAT 20 (IS-20)     
1 38740U 12043A   17076.32330903 -.00000040  00000-0  00000-0 0  9991
2 38740   0.0368 152.1699 0001195  15.2682 192.5648  1.00269528 16953
HYLAS 2                 
1 38741U 12043B   17077.42449687  .00000140  00000-0  00000-0 0  9994
2 38741   0.0166 245.6829 0001899 122.7937 351.5108  1.00273539 16901
INTELSAT 21 (IS-21)     
1 38749U 12045A   17076.67380295 -.00000300  00000-0  00000-0 0  9998
2 38749   0.0196 243.3996 0002135 126.7246 349.8627  1.00271750 16687
ASTRA 2F                
1 38778U 12051A   17077.43221079  .00000136  00000-0  00000-0 0  9992
2 38778   0.0626 232.1817 0001631  48.3925  79.3916  1.00275896 16421
GSAT-10                 
1 38779U 12051B   17077.28051396 -.00000180  00000-0  00000-0 0  9999
2 38779   0.0092 180.5523 0001912 220.2493 319.1965  1.00273249 16421
INTELSAT 23 (IS-23)     
1 38867U 12057A   17076.65993378 -.00000300  00000-0  00000-0 0  9992
2 38867   0.0117 213.2276 0001891 151.8557 354.9012  1.00273788 16138
BEIDOU G6               
1 38953U 12059A   17077.66676536 -.00000189  00000-0  10000-3 0  9995
2 38953   1.4695  79.9384 0004979 189.2726 231.2673  1.00272694 16180
LUCH 5B                 
1 38977U 12061A   17075.35577814 -.00000147  00000-0  00000-0 0  9997
2 38977   3.3574  75.1992 0003952 264.0310 306.6606  1.00272206 16280
YAMAL 300K              
1 38978U 12061B   17077.85131671  .00000057  00000-0  00000-0 0  9991
2 38978   0.0101 132.7605 0001187 340.7510 192.4688  1.00272719 16004
STAR ONE C3             
1 38991U 12062A   17077.56575997 -.00000263  00000-0  00000-0 0  9998
2 38991   0.0187 171.4731 0002399 187.5218 305.9772  1.00271317 15907
EUTELSAT 21B            
1 38992U 12062B   17077.45061774  .00000115  00000-0  00000-0 0  9995
2 38992   0.0664   0.8460 0002127   9.1595 349.9829  1.00270017 15994
ECHOSTAR 16             
1 39008U 12065A   17076.68353961 -.00000297  00000-0  00000-0 0  9995
2 39008   0.0240 168.9047 0001903 193.4295 357.6667  1.00268997 15939
CHINASAT 12 (ZX 12)     
1 39017U 12067A   17077.60592730 -.00000221  00000-0  00000-0 0  9996
2 39017   0.0176 161.3748 0002859 204.0281 116.5812  1.00271048 15842
EUTELSAT 70B            
1 39020U 12069A   17077.31511103 -.00000058  00000-0  00000-0 0  9993
2 39020   0.0678 345.0774 0001642 354.7068  20.1932  1.00270677 15646
YAMAL 402               
1 39022U 12070A   17075.12238824  .00000067  00000-0  10000-3 0  9993
2 39022   0.0031 266.7248 0002949 107.3876 258.7268  1.00273725 15701
SKYNET 5D               
1 39034U 12075A   17077.04734167  .00000084  00000-0  00000-0 0  9990
2 39034   0.0681 357.5104 0003717   5.7820 242.2909  1.00275841 15294
MEXSAT 3                
1 39035U 12075B   17076.83118917 -.00000040  00000-0  00000-0 0  9999
2 39035   0.0215 201.1357 0001733 163.6370 355.2119  1.00272799 15301
TDRS 11                 
1 39070U 13004A   17076.90002869  .00000078  00000-0  00000-0 0  9997
2 39070   5.5120 328.7430 0011271 301.3558  58.4393  1.00266816 12823
AMAZONAS 3              
1 39078U 13006A   17076.68208732 -.00000298  00000-0  00000-0 0  9994
2 39078   0.0368 224.9338 0001560 105.6216  29.4185  1.00274870 11011
AZERSPACE 1             
1 39079U 13006B   17077.38298767  .00000119  00000-0  00000-0 0  9991
2 39079   0.0213 186.5530 0002294 193.9112 339.5450  1.00268043 14948
EUTELSAT 117 WEST A     
1 39122U 13012A   17076.83673385 -.00000027  00000-0  00000-0 0  9998
2 39122   0.0176 245.6431 0002610 112.2313   2.1075  1.00271696 14585
ANIK G1                 
1 39127U 13014A   17076.81033314 -.00000089  00000-0  00000-0 0  9993
2 39127   0.0386 268.3453 0002269  65.7604  25.8659  1.00273058 14397
CHINASAT 11 (ZX 11)     
1 39157U 13020A   17077.81096648 -.00000305  00000-0  00000-0 0  9994
2 39157   0.0298 249.1962 0002783  59.2681 258.0311  1.00271529 14282
EUTELSAT 7B             
1 39163U 13022A   17076.49378635  .00000032  00000-0  00000-0 0  9991
2 39163   0.0184  20.1901 0005750 344.3503 355.4647  1.00269565 14125
SES-6                   
1 39172U 13026A   17077.44283312 -.00000275  00000-0  00000-0 0  9998
2 39172   0.0177 357.5766 0001656   8.3022 289.2179  1.00273318 13862
IRNSS-1A                
1 39199U 13034A   17074.68948908  .00000098  00000-0  00000-0 0  9990
2 39199  28.6659 116.6528 0021399 186.7256 173.3492  1.00271825 13758
ALPHASAT                
1 39215U 13038A   17077.52600305  .00000125  00000-0  00000-0 0  9996
2 39215   1.6202  30.0956 0001952 326.6619  33.6729  1.00272186 10183
INSAT-3D                
1 39216U 13038B   17076.28581046 -.00000172  00000-0  00000-0 0  9992
2 39216   0.0456 107.2191 0001485 250.6734   2.0887  1.00274149 13427
EUTELSAT 25B            
1 39233U 13044A   17077.43979881  .00000129  00000-0  00000-0 0  9995
2 39233   0.0515  10.0602 0001850   0.6584 349.2695  1.00275134 13037
GSAT-7                  
1 39234U 13044B   17077.30539517 -.00000091  00000-0  00000-0 0  9999
2 39234   0.0245 133.6066 0003228 174.3615  51.9868  1.00272469 11494
AMOS-4                  
1 39237U 13045A   17077.33021699 -.00000007  00000-0  00000-0 0  9990
2 39237   0.0431 150.3769 0002271 187.1535  22.4596  1.00271005 13094
ASTRA 2E                
1 39285U 13056A   17077.43147525  .00000136  00000-0  00000-0 0  9995
2 39285   0.0749  46.1079 0002240 302.2365  11.6346  1.00273610 12728
SIRIUS FM-6             
1 39360U 13058A   17075.83760720 -.00000034  00000-0  00000-0 0  9999
2 39360   0.0227 103.3250 0000582  92.6740 163.9800  1.00273863 12461
RADUGA-1M 3             
1 39375U 13062A   17077.77062141 -.00000053  00000-0  00000-0 0  9998
2 39375   0.0121 189.6489 0001276 175.7420 158.5405  1.00273190 12262
SES-8                   
1 39460U 13071A   17077.24726171 -.00000284  00000-0  00000-0 0  9991
2 39460   0.0311 260.1867 0002395 132.2120 327.5997  1.00271382 10657
INMARSAT 5-F1           
1 39476U 13073A   17077.77548060  .00000014  00000-0  00000-0 0  9997
2 39476   0.0193 158.9945 0000166 293.3028  65.9705  1.00272564 11736
TKSAT-1 (TUPAC KATARI)  
1 39481U 13075A   17077.51714964 -.00000208  00000-0  00000-0 0  9991
2 39481   0.0106  94.4566 0002847 250.3229 290.4478  1.00271481 11721
EXPRESS-AM5             
1 39487U 13077A   17077.28797773 -.00000295  00000-0  00000-0 0  9998
2 39487   0.0427 315.7619 0001523 151.9180 312.0256  1.00271004 12506
GSAT-14                 
1 39498U 14001A   17077.30555234 -.00000091  00000-0  00000-0 0  9999
2 39498   0.0618 252.2022 0003923 147.6531 320.1572  1.00272364 11703
THAICOM 6               
1 39500U 14002A   17077.00811973 -.00000136  00000-0  00000-0 0  9996
2 39500   0.0582 128.3164 0001955 283.7675 205.0532  1.00271674 11576
TDRS 12                 
1 39504U 14004A   17076.56027414 -.00000285  00000-0  00000-0 0  9996
2 39504   6.0747 336.1985 0003344  17.0442 342.8986  1.00271058 10403
ABS-2                   
1 39508U 14006A   17077.30286147 -.00000101  00000-0  00000-0 0  9992
2 39508   0.0218 311.2648 0003721  50.1464 358.5738  1.00271952 11464
ATHENA-FIDUS            
1 39509U 14006B   17077.40573581  .00000140  00000-0  00000-0 0  9997
2 39509   0.0149 233.6265 0001527 139.7616 346.6000  1.00271686 11638
TURKSAT 4A              
1 39522U 14007A   17077.39406143  .00000132  00000-0  00000-0 0  9991
2 39522   0.0510 271.7932 0003632  46.5332  41.6301  1.00273441 11129
EXPRESS-AT1             
1 39612U 14010A   17075.66006116  .00000060  00000-0  00000-0 0  9999
2 39612   0.0269 294.1884 0000832 169.8035   4.0594  1.00275089 11164
